     2.100          NAVIGATION                              RINEX VERSION / TYPE
fic2rin                                 06/25/2009 01:28:09 PGM / RUN BY / DATE
                                                            END OF HEADER
13 09  6 24 18  0  0.0  .300089828670D-03  .795807864051D-12  .000000000000D+00
     .710000000000D+02  .135968750000D+03  .393623538858D-08 -.128993942569D+01
     .727362930775D-05  .414701970294D-02  .622682273388D-05  .515369186783D+04
     .324000000000D+06 -.651925802231D-07  .125456572421D+01  .614672899246D-07
     .994661881306D+00  .282593750000D+03  .160429256456D+01 -.787282793488D-08
     .390373403476D-09  .100000000000D+01  .153700000000D+04  .000000000000D+00
     .240000000000D+01  .000000000000D+00 -.111758708954D-07  .710000000000D+02
     .316806000000D+06  .400000000000D+01
14 09  6 24 18  0  0.0 -.898935832083D-04  .579802872380D-11  .000000000000D+00
     .110000000000D+03  .154281250000D+03  .403123934587D-08 -.139367071447D+01
     .810250639915D-05  .453684560489D-02  .567175447941D-05  .515362024879D+04
     .324000000000D+06  .894069671631D-07  .123487643413D+01  .502914190292D-07
     .988162740465D+00  .284250000000D+03 -.216254913732D+01 -.794961684774D-08
     .425374861428D-09  .100000000000D+01  .153700000000D+04  .000000000000D+00
     .240000000000D+01  .000000000000D+00 -.931322574615D-08  .110000000000D+03
     .316806000000D+06  .400000000000D+01
15 09  6 24 18  0  0.0 -.303553882986D-03 -.295585778076D-11  .000000000000D+00
     .710000000000D+02  .145312500000D+03  .474162607919D-08 -.122283383148D+01
     .734813511372D-05  .145421992056D-02  .522099435329D-05  .515362978745D+04
     .324000000000D+06  .931322574615D-08  .118150060259D+01 -.130385160446D-07
     .956187467903D+00  .278218750000D+03 -.472423857001D+00 -.828320217148D-08
     .336799743347D-09  .100000000000D+01  .153700000000D+04  .000000000000D+00
     .240000000000D+01  .000000000000D+00 -.977888703346D-08  .710000000000D+02
     .316806000000D+06  .400000000000D+01
16 09  6 24 18  0  0.0  .389851629734D-04 -.352429196937D-11  .000000000000D+00
     .220000000000D+02 -.148312500000D+03  .403445376548D-08  .255263427261D+00
    -.788457691669D-05  .536749348976D-02  .101942569017D-04  .515357860756D+04
     .324000000000D+06  .912696123123D-07 -.296990614728D+01 -.130385160446D-07
     .969112545165D+00  .187843750000D+03 -.330186330500D+00 -.788175687824D-08
    -.226438003480D-09  .100000000000D+01  .153700000000D+04  .000000000000D+00
     .240000000000D+01  .000000000000D+00 -.977888703346D-08  .220000000000D+02
     .316806000000D+06  .400000000000D+01
17 09  6 24 18  0  0.0  .663534738123D-04  .216004991671D-11  .000000000000D+00
     .670000000000D+02  .113750000000D+02  .454268922124D-08 -.865319197938D+00
     .499188899994D-06  .454383448232D-02  .930204987526D-05  .515369607735D+04
     .324000000000D+06  .149011611938D-06 -.192780732884D+01 -.931322574615D-08
     .959444061062D+00  .202718750000D+03 -.263393258893D+01 -.797033199632D-08
     .495377777330D-09  .100000000000D+01  .153700000000D+04  .000000000000D+00
     .240000000000D+01  .000000000000D+00 -.102445483208D-07  .670000000000D+02
     .316806000000D+06  .400000000000D+01
18 09  6 24 18  0  0.0 -.454834662378D-04  .318323145621D-11  .000000000000D+00
     .900000000000D+01  .539687500000D+02  .472948271622D-08  .449526286631D+00
     .275857746601D-05  .105616416549D-01  .117029994726D-04  .515360858154D+04
     .324000000000D+06 -.484287738800D-07  .178032773677D+00  .143423676491D-06
     .942351854337D+00  .147500000000D+03 -.241554681023D+01 -.808712257540D-08
    -.470019578202D-09  .100000000000D+01  .153700000000D+04  .000000000000D+00
     .240000000000D+01  .000000000000D+00 -.107102096081D-07  .900000000000D+01
     .316806000000D+06  .400000000000D+01
19 09  6 24 18  0  0.0  .213854946196D-04 -.136424205266D-11  .000000000000D+00
     .560000000000D+02  .768750000000D+01  .456126142342D-08 -.147164374193D+01
     .454485416412D-06  .570286915172D-02  .915862619877D-05  .515361467361D+04
     .324000000000D+06 -.651925802231D-07 -.187182262721D+01 -.558793544769D-08
     .957111853653D+00  .203531250000D+03 -.342035159412D+00 -.789211445253D-08
     .678242537238D-09  .100000000000D+01  .153700000000D+04  .000000000000D+00
     .240000000000D+01  .000000000000D+00 -.144354999065D-07  .560000000000D+02
     .316806000000D+06  .400000000000D+01
20 09  6 24 18  0  0.0  .790692865849D-04 -.102318153949D-11  .000000000000D+00
     .740000000000D+02  .255937500000D+02  .471948229967D-08  .594449537621D+00
     .112690031528D-05  .391388230491D-02  .115782022476D-04  .515358790207D+04
     .324000000000D+06 -.782310962677D-07  .124211148567D+00 -.521540641785D-07
     .942008140272D+00  .143593750000D+03  .136944340131D+01 -.807890794752D-08
    -.483591572101D-09  .100000000000D+01  .153700000000D+04  .000000000000D+00
     .240000000000D+01  .000000000000D+00 -.651925802231D-08  .740000000000D+02
     .316806000000D+06  .400000000000D+01
22 09  6 24 18  0  0.0  .196867622435D-03 -.682121026330D-12  .000000000000D+00
     .310000000000D+02  .561562500000D+02  .472948271622D-08 -.579689286683D+00
     .292807817459D-05  .508537259884D-02  .119097530842D-04  .515366305161D+04
     .324000000000D+06 -.409781932831D-07  .183658640200D+00  .316649675369D-07
     .940016507506D+00  .141906250000D+03 -.189477494583D+01 -.805033532878D-08
    -.407516974718D-09  .100000000000D+01  .153700000000D+04  .000000000000D+00
     .240000000000D+01  .000000000000D+00 -.176951289177D-07  .310000000000D+02
     .316806000000D+06  .400000000000D+01
23 09  6 24 18  0  0.0  .390202272683D-03  .000000000000D+00  .000000000000D+00
     .720000000000D+02  .143156250000D+03  .442089843388D-08 -.201049419727D+01
     .734068453312D-05  .624547980260D-02  .665336847305D-05  .515360093117D+04
     .324000000000D+06 -.100582838058D-06  .120186135890D+01 -.150874257088D-06
     .970164352542D+00  .262687500000D+03  .289962852681D+01 -.810283751571D-08
     .401802450971D-09  .100000000000D+01  .153700000000D+04  .000000000000D+00
     .240000000000D+01  .000000000000D+00 -.200234353542D-07  .720000000000D+02
     .316806000000D+06  .400000000000D+01
24 09  6 24 18  0  0.0  .199359841645D-03  .295585778076D-11  .000000000000D+00
     .560000000000D+02 -.150312500000D+02  .514235705696D-08  .368190509367D+00
    -.730156898499D-06  .665920809843D-02  .557862222195D-05  .515366359711D+04
     .324000000000D+06  .484287738800D-07 -.847307158064D+00 -.800937414169D-07
     .950294803159D+00  .264125000000D+03 -.652434936260D+00 -.838106339065D-08
    -.256082095419D-09  .100000000000D+01  .153700000000D+04  .000000000000D+00
     .340000000000D+01  .000000000000D+00 -.139698386192D-08  .560000000000D+02
     .316806000000D+06  .400000000000D+01
25 09  6 24 18  0  0.0  .477663706988D-03  .176214598469D-10  .000000000000D+00
     .410000000000D+02 -.180312500000D+02  .488270338419D-08  .864692441408D+00
    -.116601586342D-05  .113386709709D-01  .217929482460D-06  .515364573669D+04
     .324000000000D+06 -.856816768646D-07  .214981309248D+01 -.158324837685D-06
     .969858567554D+00  .382562500000D+03 -.120808876563D+01 -.866750389347D-08
    -.564309220030D-10  .100000000000D+01  .153700000000D+04  .000000000000D+00
     .240000000000D+01  .000000000000D+00 -.745058059692D-08  .410000000000D+02
     .316806000000D+06  .400000000000D+01
26 09  6 24 18  0  0.0  .641429796815D-04  .454747350886D-12  .000000000000D+00
     .140000000000D+02  .158906250000D+03  .380122976505D-08  .270596185191D+01
     .783056020737D-05  .203480200144D-01  .492669641972D-05  .515490463638D+04
     .324000000000D+06  .838190317154D-07  .125212533255D+01 -.262632966042D-06
     .992494372140D+00  .300843750000D+03  .101920002799D+01 -.755102881637D-08
     .357514891930D-09  .100000000000D+01  .153700000000D+04  .000000000000D+00
     .240000000000D+01  .000000000000D+00 -.651925802231D-08  .140000000000D+02
     .316806000000D+06  .400000000000D+01
28 09  6 24 18  0  0.0 -.256495550275D-04 -.227373675443D-12  .000000000000D+00
     .900000000000D+02 -.112656250000D+03  .418446001384D-08 -.336609408379D+00
    -.593438744545D-05  .149077830138D-01  .995397567749D-05  .515365785217D+04
     .324000000000D+06 -.968575477600D-07 -.296176179267D+01  .147148966789D-06
     .967309669793D+00  .191375000000D+03 -.202282099516D+01 -.814426781287D-08
    -.142148778210D-09  .100000000000D+01  .153700000000D+04  .000000000000D+00
     .485000000000D+01  .000000000000D+00 -.107102096081D-07  .900000000000D+02
     .316806000000D+06  .400000000000D+01
29 09  6 24 18  0  0.0  .332719646394D-04  .363797880709D-11  .000000000000D+00
     .540000000000D+02  .132187500000D+02  .460233456285D-08  .172218196427D+01
     .581145286560D-06  .339364388492D-02  .936351716518D-05  .515365490532D+04
     .324000000000D+06  .782310962677D-07 -.191960508657D+01  .186264514923D-07
     .959670751922D+00  .196000000000D+03 -.130746918536D+01 -.792104422900D-08
     .612168356412D-09  .100000000000D+01  .153700000000D+04  .000000000000D+00
     .240000000000D+01  .000000000000D+00 -.884756445885D-08  .540000000000D+02
     .316806000000D+06  .400000000000D+01
30 09  6 24 18  0  0.0  .156056135893D-03  .272848410532D-11  .000000000000D+00
     .260000000000D+02 -.137437500000D+03  .451304512930D-08  .157783956929D+00
    -.702403485775D-05  .115490169264D-01  .104811042547D-04  .515359015465D+04
     .324000000000D+06 -.158324837685D-06 -.303507679826D+01  .502914190292D-07
     .952752615251D+00  .173562500000D+03  .142101717671D+01 -.824855787126D-08
    -.214294640518D-09  .100000000000D+01  .153700000000D+04  .000000000000D+00
     .240000000000D+01  .000000000000D+00 -.838190317154D-08  .260000000000D+02
     .316806000000D+06  .400000000000D+01
